{"type":"FeatureCollection","features":[{"type":"Feature","properties":{"name":"Antarctica","pop_est":0,"continent":"Antarctica","region_un":null,"subregion":null,"region_wb":"Latin America & Caribbean","name_len":10,"long_len":10,"abbrev_len":4,"tiny":-99,"homepart":1,"min_zoom":0,"min_label":3,"ne_id":1570,"wikidataid":"Q51","name_ar":"القارة القطبية الجنوبية","name_bn":"অ্যান্টার্কটিকা","name_de":"Antarktika","name_en":"Antarctica","name_es":"Antártida","name_fr":"Antarctique","name_el":"Ανταρκτική","name_hi":"अंटार्कटिका","name_hu":"Antarktisz","name_id":"Antartika","name_it":"Antartide","name_ja":"南極大陸","name_ko":"남극","name_nl":"Antarctica","name_pl":"Antarktyda","name_pt":"Antártida","name_ru":"Антарктида","name_sv":"Antarktis","name_tr":"Antarktika","name_vi":"Châu Nam Cực","name_zh":"南极洲","ne_id":1570,"wikidataid":"Q51"},"geometry":{"type":"MultiPolygon","coordinates":[[[[180.0,-60.0],[170.0,-65.0],[160.0,-70.0],[150.0,-75.0],[140.0,-78.0],[130.0,-80.0],[120.0,-82.0],[110.0,-83.0],[100.0,-83.5],[90.0,-83.5],[80.0,-83.0],[70.0,-82.0],[60.0,-80.0],[50.0,-78.0],[40.0,-75.0],[30.0,-70.0],[20.0,-65.0],[10.0,-60.0],[0.0,-55.0],[-10.0,-55.0],[-20.0,-55.0],[-30.0,-55.0],[-40.0,-55.0],[-50.0,-55.0],[-60.0,-55.0],[-70.0,-55.0],[-80.0,-55.0],[-90.0,-55.0],[-100.0,-55.0],[-110.0,-55.0],[-120.0,-55.0],[-130.0,-55.0],[-140.0,-55.0],[-150.0,-55.0],[-160.0,-55.0],[-170.0,-55.0],[-180.0,-55.0],[-180.0,-60.0]]]]}},{"type":"Feature","properties":{"name":"Greenland","pop_est":56367,"continent":"North America","region_un":null,"subregion":"Northern America","region_wb":"North America","name_len":7,"long_len":7,"abbrev_len":2,"tiny":1,"homepart":1,"min_zoom":0,"min_label":3,"ne_id":1117,"wikidataid":"Q223","name_ar":"غرينلاند","name_bn":"গ্রিনল্যান্ড","name_de":"Grönland","name_en":"Greenland","name_es":"Groenlandia","name_fr":"Groenland","name_el":"Γροιλανδία","name_hi":"ग्रीनलैंड","name_hu":"Grönland","name_id":"Greenland","name_it":"Groenlandia","name_ja":"グリーンランド","name_ko":"그린란드","name_nl":"Groenland","name_pl":"Grenlandia","name_pt":"Groenlândia","name_ru":"Гренландия","name_sv":"Grönland","name_tr":"Grönland","name_vi":"Greenland","name_zh":"格陵兰","ne_id":1117,"wikidataid":"Q223"},"geometry":{"type":"MultiPolygon","coordinates":[[[[-43.0,83.0],[-50.0,82.0],[-60.0,80.0],[-70.0,78.0],[-80.0,75.0],[-90.0,72.0],[-100.0,70.0],[-110.0,68.0],[-120.0,66.0],[-130.0,65.0],[-140.0,64.0],[-150.0,63.0],[-160.0,62.0],[-170.0,61.0],[-180.0,60.0],[-180.0,80.0],[-170.0,82.0],[-160.0,83.0],[-150.0,83.5],[-140.0,83.5],[-130.0,83.0],[-120.0,82.5],[-110.0,82.0],[-100.0,81.5],[-90.0,81.0],[-80.0,80.5],[-70.0,80.0],[-60.0,79.5],[-50.0,79.0],[-43.0,83.0]]]]}}]}